IRIDE FM5               
1 66699U 25276AK  25355.51116214  .00005616  00000+0  28485-3 0  9996
2 66699  97.4440  67.1171 0004801 242.2933 117.7814 15.17328524  3456
IRIDE FM6               
1 66700U 25276AL  25355.43286196  .00008480  00000+0  41792-3 0  9995
2 66700  97.4428  67.0733 0001529 167.0520 193.0754 15.18188010  3442
IRIDE FM7               
1 66701U 25276AM  25355.51120688 -.00138346  00000+0 -71121-2 0  9993
2 66701  97.4408  67.1217 0002040 246.0122 114.0898 15.17123308  3455
IRIDE FM8               
1 66702U 25276AN  25355.51099901  .00008117  00000+0  40971-3 0  9997
2 66702  97.4405  67.1148 0002809 271.0756  89.0156 15.17362321  3458
PELICAN-6               
1 66703U 25276AP  25355.57561871  .00004212  00000+0  21456-3 0  9993
2 66703  97.4414  67.1831 0000903 251.8635 108.2501 15.17322005  3467
FLOCK 4H-1              
1 66704U 25276AQ  25355.43418578  .00007487  00000+0  37080-3 0  9991
2 66704  97.4390  67.0574 0001775 175.4041 184.7210 15.18059569  3441
FLOCK 4H-2              
1 66705U 25276AR  25355.43376929  .00008604  00000+0  42493-3 0  9991
2 66705  97.4384  67.0582 0001123 163.8014 196.3256 15.18111901  3440
FLOCK 4H-3              
1 66706U 25276AS  25355.37648982  .01105709  00000+0  47949-1 0  9990
2 66706  97.4467  67.0015 0010850 263.3993  96.6007 15.19631128  3437
FLOCK 4H-4              
1 66707U 25276AT  25355.51275739  .00005918  00000+0  30120-3 0  9998
2 66707  97.4436  67.1220 0003512 258.3382 101.7457 15.17188007  3456
FLOCK 4H-5              
1 66708U 25276AU  25355.30078224  .00006686  00000+0  33070-3 0  9996
2 66708  97.4390  66.9337 0001119 128.5114 231.6220 15.18142755  3423
FLOCK 4H-6              
1 66709U 25276AV  25355.43601759  .00007759  00000+0  38596-3 0  9996
2 66709  97.4440  67.0759 0002605 212.9123 147.1949 15.17892092  3445
FLOCK 4H-7              
1 66710U 25276AW  25355.37704854  .00003939  00000+0  20005-3 0  9993
2 66710  97.4395  66.9821 0001093 304.4671  55.6460 15.17464124  3430
